     2.100          NAVIGATION                              RINEX VERSION / TYPE
fic2rin                                 06/28/2009 01:57:54 PGM / RUN BY / DATE
                                                            END OF HEADER
 8 09  6 28  0  0  0.0 -.209461897612D-03 -.147792889038D-11  .000000000000D+00
     .159000000000D+03  .260312500000D+02  .414588697855D-08 -.105322209849D+01
     .108405947685D-05  .106683535269D-01  .561401247978D-05  .515363673782D+04
     .000000000000D+00  .428408384323D-07  .218252268116D+01 -.171363353729D-06
     .988959751400D+00  .283125000000D+03  .299517155589D+01 -.806819321549D-08
     .562166273625D-09  .100000000000D+01  .153800000000D+04  .000000000000D+00
     .340000000000D+01  .000000000000D+00 -.372529029846D-08  .159000000000D+03
     .597606000000D+06  .400000000000D+01
 9 09  6 28  0  0  0.0  .635129399598D-04  .204636307899D-11  .000000000000D+00
     .230000000000D+02  .363437500000D+02  .437732519031D-08 -.129526173818D+01
     .246986746788D-05  .206919345073D-01  .610947608948D-05  .515363192940D+04
     .000000000000D+00 -.633299350739D-07  .208771070882D+01  .476837158203D-06
     .976613613728D+00  .274843750000D+03  .148711689771D+01 -.819248410699D-08
     .408231290186D-09  .100000000000D+01  .153800000000D+04  .000000000000D+00
     .240000000000D+01  .000000000000D+00 -.558793544769D-08  .230000000000D+02
     .597606000000D+06  .400000000000D+01
10 09  6 28  0  0  0.0 -.181677751243D-04 -.568434188608D-12  .000000000000D+00
     .240000000000D+02 -.130625000000D+02  .466733727047D-08  .231870685014D+01
    -.817701220512D-06  .856727594510D-02  .604055821896D-05  .515362319183D+04
     .000000000000D+00 -.372529029846D-07  .503335880703D-01 -.856816768646D-07
     .958175294156D+00  .263937500000D+03  .626754591416D+00 -.823248577322D-08
    -.367515308488D-09  .100000000000D+01  .153800000000D+04  .000000000000D+00
     .240000000000D+01  .000000000000D+00 -.279396772385D-08  .240000000000D+02
     .597606000000D+06  .400000000000D+01
11 09  6 28  0  0  0.0 -.828783959150D-05 -.159161572810D-11  .000000000000D+00
     .590000000000D+02  .654375000000D+02  .642919637326D-08 -.508313087886D+00
     .331364572048D-05  .944502814673D-02  .730901956558D-05  .515368766212D+04
     .000000000000D+00  .745058059692D-07 -.123576590588D+01  .189989805222D-06
     .888992922421D+00  .197781250000D+03  .700594635379D+00 -.918288250392D-08
     .921466954226D-10  .100000000000D+01  .153800000000D+04  .000000000000D+00
     .240000000000D+01  .000000000000D+00 -.116415321827D-07  .590000000000D+02
     .597606000000D+06  .400000000000D+01
12 09  6 28  0  0  0.0 -.259615480900D-03  .602540239925D-11  .000000000000D+00
     .290000000000D+02 -.708750000000D+02  .481412909923D-08 -.335138684169D+00
    -.368058681488D-05  .328538310714D-02  .564940273762D-05  .515362986755D+04
     .000000000000D+00  .335276126862D-07 -.310956090946D+01 -.260770320892D-07
     .967624227902D+00  .276437500000D+03 -.659552892911D+00 -.830606026646D-08
    -.660741808263D-10  .100000000000D+01  .153800000000D+04  .000000000000D+00
     .240000000000D+01  .000000000000D+00 -.116415321827D-07  .290000000000D+02
     .597606000000D+06  .400000000000D+01
13 09  6 28  0  0  0.0  .300317537040D-03  .795807864051D-12  .000000000000D+00
     .480000000000D+02  .201562500000D+02  .341157067704D-08  .196543209552D+01
     .106543302536D-05  .415495655034D-02  .108350068331D-04  .515369453812D+04
     .000000000000D+00  .102445483208D-06  .113199197596D+01 -.409781932831D-07
     .994713222416D+00  .186937500000D+03  .160611193433D+01 -.754781439677D-08
     .101789954246D-09  .100000000000D+01  .153800000000D+04  .000000000000D+00
     .240000000000D+01  .000000000000D+00 -.111758708954D-07  .480000000000D+02
     .597606000000D+06  .400000000000D+01
14 09  6 28  0  0  0.0 -.882805325091D-04  .579802872380D-11  .000000000000D+00
     .400000000000D+02  .221562500000D+02  .357622039251D-08  .186731962200D+01
     .128149986267D-05  .453957670834D-02  .964291393757D-05  .515362408829D+04
     .000000000000D+00 -.949949026108D-07  .111228522596D+01 -.838190317154D-07
     .988208244531D+00  .205093750000D+03 -.216457899614D+01 -.769032033271D-08
     .120004998690D-09  .100000000000D+01  .153800000000D+04  .000000000000D+00
     .240000000000D+01  .000000000000D+00 -.931322574615D-08  .400000000000D+02
     .597606000000D+06  .400000000000D+01
15 09  6 28  0  0  0.0 -.304374843836D-03 -.284217094304D-11  .000000000000D+00
     .310000000000D+02  .721875000000D+01  .434839541384D-08  .203066417882D+01
     .314787030220D-06  .145615311339D-02  .975094735622D-05  .515363344383D+04
     .000000000000D+00 -.465661287308D-07  .105881615679D+01 -.558793544769D-08
     .956220820973D+00  .189000000000D+03 -.467058659074D+00 -.799033282943D-08
     .321441960776D-11  .100000000000D+01  .153800000000D+04  .000000000000D+00
     .240000000000D+01  .000000000000D+00 -.977888703346D-08  .310000000000D+02
     .597606000000D+06  .400000000000D+01
16 09  6 28  0  0  0.0  .379988923669D-04 -.352429196937D-11  .000000000000D+00
     .580000000000D+02 -.763437500000D+02  .466233706220D-08 -.277040917914D+01
    -.384077429771D-05  .536259613000D-02  .671297311783D-05  .515357094574D+04
     .000000000000D+00 -.128522515297D-06 -.309257527925D+01  .279396772385D-07
     .969055361160D+00  .255500000000D+03 -.327456130376D+00 -.805533553706D-08
    -.142505935944D-09  .100000000000D+01  .153800000000D+04  .000000000000D+00
     .240000000000D+01  .000000000000D+00 -.977888703346D-08  .580000000000D+02
     .597606000000D+06  .400000000000D+01
17 09  6 28  0  0  0.0  .669918954372D-04  .227373675443D-11  .000000000000D+00
     .550000000000D+02 -.234687500000D+02  .446518599292D-08  .239014737784D+01
    -.129081308842D-05  .455155409873D-02  .122692435980D-04  .515370414543D+04
     .000000000000D+00 -.949949026108D-07 -.205043822891D+01 -.521540641785D-07
     .959553066014D+00  .142781250000D+03 -.263212497516D+01 -.787854245863D-08
    -.860750139413D-10  .100000000000D+01  .153800000000D+04  .000000000000D+00
     .240000000000D+01  .000000000000D+00 -.102445483208D-07  .550000000000D+02
     .597606000000D+06  .400000000000D+01
18 09  6 28  0  0  0.0 -.445898622274D-04  .318323145621D-11  .000000000000D+00
     .620000000000D+02 -.200312500000D+02  .482484383125D-08 -.257644370615D+01
    -.105984508991D-05  .105851625558D-01  .633485615253D-05  .515360598373D+04
     .000000000000D+00  .298023223877D-07  .553085847846D-01 -.147148966789D-06
     .942211896965D+00  .247343750000D+03 -.241307668036D+01 -.820677041636D-08
    -.236081262304D-09  .100000000000D+01  .153800000000D+04  .000000000000D+00
     .240000000000D+01  .000000000000D+00 -.107102096081D-07  .620000000000D+02
     .597606000000D+06  .400000000000D+01
19 09  6 28  0  0  0.0  .210199505091D-04 -.136424205266D-11  .000000000000D+00
     .620000000000D+02 -.346875000000D+01  .461197782167D-08  .178514014916D+01
     .102445483208D-06  .571150111500D-02  .115446746349D-04  .515362748337D+04
     .000000000000D+00  .121071934700D-06 -.199446643168D+01  .558793544769D-07
     .957225737437D+00  .150906250000D+03 -.339647963838D+00 -.800926218935D-08
    -.111076055335D-09  .100000000000D+01  .153800000000D+04  .000000000000D+00
     .240000000000D+01  .000000000000D+00 -.144354999065D-07  .620000000000D+02
     .597606000000D+06  .400000000000D+01
20 09  6 28  0  0  0.0  .787889584899D-04 -.102318153949D-11  .000000000000D+00
     .870000000000D+02 -.136875000000D+02  .497020702907D-08 -.242649292067D+01
    -.648200511932D-06  .389770814218D-02  .620074570179D-05  .515358096886D+04
     .000000000000D+00  .111758708954D-07  .147947392317D-02 -.484287738800D-07
     .941866566374D+00  .250906250000D+03  .136742431688D+01 -.833106130786D-08
    -.401088135502D-09  .100000000000D+01  .153800000000D+04  .000000000000D+00
     .240000000000D+01  .000000000000D+00 -.651925802231D-08  .870000000000D+02
     .597606000000D+06  .400000000000D+01
21 09  6 28  0  0  0.0  .591576099396D-05 -.216004991671D-11  .000000000000D+00
     .330000000000D+02  .520625000000D+02  .520843123778D-08 -.129675821121D+01
     .262074172497D-05  .154233125504D-01  .629946589470D-05  .515360330391D+04
     .000000000000D+00  .299885869026D-06 -.100274352354D+01 -.167638063431D-06
     .933653229330D+00  .242781250000D+03 -.258620634805D+01 -.838927801853D-08
     .108933108930D-09  .100000000000D+01  .153800000000D+04  .000000000000D+00
     .240000000000D+01  .000000000000D+00 -.121071934700D-07  .330000000000D+02
     .597606000000D+06  .400000000000D+01
22 09  6 28  0  0  0.0  .196630135179D-03 -.909494701773D-12  .000000000000D+00
     .470000000000D+02 -.142187500000D+02  .491663336894D-08  .267786599964D+01
    -.754371285439D-06  .510605133604D-02  .630505383015D-05  .515365844536D+04
     .000000000000D+00  .409781932831D-07  .609273488401D-01 -.279396772385D-07
     .939876725684D+00  .246687500000D+03 -.189388076056D+01 -.829105964163D-08
    -.316798910232D-09  .100000000000D+01  .153800000000D+04  .000000000000D+00
     .240000000000D+01  .000000000000D+00 -.176951289177D-07  .470000000000D+02
     .597606000000D+06  .400000000000D+01
23 09  6 28  0  0  0.0  .390193425119D-03  .000000000000D+00  .000000000000D+00
     .890000000000D+02  .252500000000D+02  .395945064130D-08  .124801987825D+01
     .133924186230D-05  .625919352751D-02  .104233622551D-04  .515360446739D+04
     .000000000000D+00  .577419996262D-07  .107921883156D+01  .154599547386D-06
     .970204429183D+00  .183031250000D+03  .290063019706D+01 -.782746890264D-08
    -.714315468392D-11  .100000000000D+01  .153800000000D+04  .000000000000D+00
     .240000000000D+01  .000000000000D+00 -.200234353542D-07  .890000000000D+02
     .597606000000D+06  .400000000000D+01
